{"type":"FeatureCollection","metadata":{"source":"ศูนย์อุทกวิทยาและบริหารน้ำภาคเหนือตอนบน กรมชลประทาน","sourceUrl":"https://www.hydro-1.net/Data/STATION/History/P71A.pdf","verified":"เอกสารประวัติสถานี มีนาคม 2557"},"features":[{"type":"Feature","properties":{"stationCode":"P.71A","name":"บ้านท่าวัวป่าสัก","river":"แม่ขาน","location":"ต.บ้านกลาง อ.สันป่าตอง จ.เชียงใหม่","source":"ศูนย์อุทกวิทยาชลประทานภาคเหนือตอนบน","sourceUrl":"https://www.hydro-1.net/Data/STATION/History/P71A.pdf"},"geometry":{"type":"Point","coordinates":[98.8622222222,18.5472222222]}}]}
